OBJECT_NAME,OBJECT_ID,EPOCH,MEAN_MOTION,ECCENTRICITY,INCLINATION,RA_OF_ASC_NODE,ARG_OF_PERICENTER,MEAN_ANOMALY,EPHEMERIS_TYPE,CLASSIFICATION_TYPE,NORAD_CAT_ID,ELEMENT_SET_NO,REV_AT_EPOCH,BSTAR,MEAN_MOTION_DOT,MEAN_MOTION_DDOT
STARLINK-6106,2023-090BF,2026-07-21T02:16:13.577376,15.27575527,.00012712,43.0007,230.1312,271.5950,88.4756,0,U,57154,999,17094,.8280082E-5,-.34E-6,0
STARLINK-6108,2023-090BG,2026-07-21T02:42:07.451136,15.27577381,.00010992,43.0007,230.2636,269.4953,90.5772,0,U,57155,999,17094,.13980462E-4,.123E-5,0
STARLINK-6137,2023-090BH,2026-07-22T06:00:02.000160,15.72709645,.00014367,43.0025,217.2251,287.5000,72.0266,0,U,57156,999,579,.55828059E-2,.8602E-2,0
METEOR-M2 3,2023-091A,2026-07-22T07:11:46.360896,14.24049316,.00050693,98.6064,257.5559,74.4584,285.7154,0,U,57166,999,15951,.1119478E-4,-.17E-6,0
2023-091C,2023-091C,2026-07-22T06:59:28.968864,15.27071768,.00102401,97.5003,265.7835,351.8991,8.2080,0,U,57168,999,16961,.33054278E-3,.8718E-4,0
2023-091D,2023-091D,2026-07-22T05:42:20.968416,15.24684927,.00089546,97.5088,264.8576,348.5471,11.5561,0,U,57169,999,16950,.3525365E-3,.8653E-4,0
2023-091E,2023-091E,2026-07-22T05:42:34.776864,15.24685147,.00076537,97.5094,264.9378,340.3368,19.7573,0,U,57170,999,16950,.35508351E-3,.8714E-4,0
2023-091F,2023-091F,2026-07-22T05:41:59.521344,15.24685579,.00100199,97.5090,264.8863,359.1328,0.9890,0,U,57171,999,16950,.35709503E-3,.8769E-4,0
UMKA 1 (RS40S),2023-091G,2026-07-22T05:23:20.691456,15.21173875,.00123263,97.5028,261.7914,5.5532,354.5837,0,U,57172,999,16933,.25572396E-3,.564E-4,0
2023-091H,2023-091H,2026-07-22T04:41:36.314016,15.29316795,.00088363,97.5027,266.6843,0.5260,359.5988,0,U,57173,999,16965,.44214261E-3,.12518E-3,0
2023-091J,2023-091J,2026-07-22T06:46:27.429024,15.14146601,.00138432,97.5036,255.8790,33.8290,326.3822,0,U,57174,999,16894,.22737602E-3,.4088E-4,0
CUBEBEL 2 (EU11S),2023-091K,2026-07-22T05:58:07.101984,15.29939877,.0008772,97.5029,266.7948,1.6377,358.4890,0,U,57175,999,16966,.47809043E-3,.13806E-3,0
SITRO-AIS 5 (KATYS),2023-091L,2026-07-22T06:13:51.487680,15.30172036,.0009941,97.5039,267.5071,346.4977,13.5996,0,U,57176,999,16970,.44394417E-3,.12909E-3,0
ZORKIY-2M 1,2023-091M,2026-07-22T06:34:44.349024,15.21309198,.00126707,97.5069,262.1337,2.0301,358.0984,0,U,57177,999,16933,.27988799E-3,.6205E-4,0
CUBESX-HSE 3 (RS42S),2023-091N,2026-07-22T06:09:52.888032,15.32004264,.00090037,97.5070,269.3038,335.0192,25.0612,0,U,57178,999,16979,.45706649E-3,.14071E-3,0
2023-091P,2023-091P,2026-07-22T06:03:18.440064,15.16734065,.00147088,97.5072,258.8971,10.6397,349.5144,0,U,57179,999,16910,.20532391E-3,.3969E-4,0
MONITOR-3 (RS58S),2023-091Q,2026-07-22T07:05:05.546976,15.28465948,.00102569,97.5062,267.0109,343.7140,16.3769,0,U,57180,999,16965,.37941805E-3,.10455E-3,0
2023-091R,2023-091R,2026-07-22T05:48:35.893440,15.14683137,.0015401,97.5045,256.7273,22.8795,337.3120,0,U,57181,999,16899,.14881498E-3,.2694E-4,0
MONITOR-4 (RS57S),2023-091S,2026-07-22T06:32:06.345024,15.28552951,.00102739,97.5055,266.9609,344.0585,16.0330,0,U,57182,999,16965,.39161947E-3,.10823E-3,0
2023-091T,2023-091T,2026-07-22T05:53:41.970624,15.19272886,.00106021,97.5067,261.6608,357.6331,2.4852,0,U,57183,999,16929,.2334345E-3,.486E-4,0
MONITOR-2 (RS39S),2023-091U,2026-07-22T06:58:29.771040,15.19197494,.00106706,97.5051,261.3491,359.7951,0.3277,0,U,57184,999,16928,.22091477E-3,.4586E-4,0
2023-091V,2023-091V,2026-07-22T06:09:06.072192,15.40719955,.00045708,97.5036,274.8651,310.7059,49.3789,0,U,57185,999,17017,.5358575E-3,.21847E-3,0
CSTP 1.2 (STC 1.2),2023-091W,2026-07-22T04:24:36.559008,15.29411590,.001674,97.5128,269.7983,334.0122,26.0275,0,U,57186,999,16980,.30548414E-3,.8671E-4,0
SVYATOBOR 1 (RS60S),2023-091X,2026-07-22T06:01:44.529312,15.27142504,.00080254,97.5068,267.2715,338.2806,21.8092,0,U,57187,999,16966,.35978866E-3,.9512E-4,0
HORS 1,2023-091Y,2026-07-22T05:37:09.314112,15.27262781,.00075074,97.5045,267.0123,338.5396,21.5527,0,U,57188,999,16966,.33210413E-3,.8804E-4,0
VIZARD-METEO (RS38S),2023-091Z,2026-07-22T05:57:57.216096,15.37029018,.00051959,97.5070,273.4594,308.7320,51.3459,0,U,57189,999,17007,.48852654E-3,.17641E-3,0
POLYTECH-UNIVERSE 3 (RS46S),2023-091AB,2026-07-22T05:55:53.873184,15.19410694,.00153948,97.5027,260.8101,14.0853,346.0807,0,U,57191,999,16927,.24052645E-3,.5039E-4,0
SITRO-AIS 6 (CHIRKIN),2023-091AC,2026-07-22T06:07:46.687008,15.26525884,.00104432,97.5047,266.4326,351.2765,8.8291,0,U,57192,999,16963,.40407096E-3,.10501E-3,0
SITRO-AIS 8 (ANOKHIN),2023-091AD,2026-07-22T06:41:47.430816,15.32986636,.00088206,97.5035,269.2620,341.1495,18.9419,0,U,57193,999,16982,.45934031E-3,.14584E-3,0
SITRO-AIS 7 (FARTUSHNIY),2023-091AE,2026-07-22T06:22:54.361344,15.26197243,.0010378,97.5043,266.2494,352.6408,7.4677,0,U,57194,999,16962,.39314857E-3,.10114E-3,0
